{
  "type": "FeatureCollection",
  "features": [
    {
      "type": "Feature",
      "properties": {
        "norad_id": 33913,
        "name": "COSMOS 2251 DEB",
        "group": "cosmos-2251-debris",
        "lat": -73.04128750785401,
        "lon": 54.85199970525631,
        "alt_km": 703.1965257066267,
        "timestamp": "2025-12-22T16:55:17.857741+00:00",
        "meta_object_name": "COSMOS 2251 DEB",
        "meta_object_id": "1993-036DS",
        "meta_epoch": "2025-12-21T22:10:05.651328",
        "meta_mean_motion": 14.48521672,
        "meta_eccentricity": 0.00481606,
        "meta_inclination": 74.0319,
        "meta_ra_of_asc_node": 166.4375,
        "meta_arg_of_pericenter": 267.2744,
        "meta_mean_anomaly": 243.9163,
        "meta_ephemeris_type": 0,
        "meta_classification_type": "U",
        "meta_norad_cat_id": 33913,
        "meta_element_set_no": 999,
        "meta_rev_at_epoch": 88590,
        "meta_bstar": 0.00050659552,
        "meta_mean_motion_dot": 1.902e-05,
        "meta_mean_motion_ddot": 0,
        "tle_line1": "1 33913U 93036DS  25355.92367652  .00001902  00000+0  50660-3 0  9991",
        "tle_line2": "2 33913  74.0319 166.4375 0048160 267.2744 243.9163 14.48521672885906"
      },
      "geometry": {
        "type": "Point",
        "coordinates": [
          54.85199970525631,
          -73.04128750785401
        ]
      }
    },
    {
      "type": "Feature",
      "properties": {
        "norad_id": 33914,
        "name": "COSMOS 2251 DEB",
        "group": "cosmos-2251-debris",
        "lat": 4.185973073064023,
        "lon": -0.13190278474774086,
        "alt_km": 1006.4687693116684,
        "timestamp": "2025-12-22T16:55:17.857752+00:00",
        "meta_object_name": "COSMOS 2251 DEB",
        "meta_object_id": "1993-036DT",
        "meta_epoch": "2025-12-22T03:12:47.479104",
        "meta_mean_motion": 13.71990067,
        "meta_eccentricity": 0.03008187,
        "meta_inclination": 74.0911,
        "meta_ra_of_asc_node": 359.613,
        "meta_arg_of_pericenter": 100.3739,
        "meta_mean_anomaly": 327.4283,
        "meta_ephemeris_type": 0,
        "meta_classification_type": "U",
        "meta_norad_cat_id": 33914,
        "meta_element_set_no": 999,
        "meta_rev_at_epoch": 84210,
        "meta_bstar": 0.00022001742,
        "meta_mean_motion_dot": 2.56e-06,
        "meta_mean_motion_ddot": 0,
        "tle_line1": "1 33914U 93036DT  25356.13388286  .00000256  00000+0  22002-3 0  9992",
        "tle_line2": "2 33914  74.0911 359.6130 0300818 100.3739 327.4283 13.71990067842101"
      },
      "geometry": {
        "type": "Point",
        "coordinates": [
          -0.13190278474774086,
          4.185973073064023
        ]
      }
    },
    {
      "type": "Feature",
      "properties": {
        "norad_id": 33915,
        "name": "COSMOS 2251 DEB",
        "group": "cosmos-2251-debris",
        "lat": -49.64329322625577,
        "lon": -144.48008551631185,
        "alt_km": 825.1666573408311,
        "timestamp": "2025-12-22T16:55:17.857762+00:00",
        "meta_object_name": "COSMOS 2251 DEB",
        "meta_object_id": "1993-036DU",
        "meta_epoch": "2025-12-22T07:32:25.063008",
        "meta_mean_motion": 14.35103348,
        "meta_eccentricity": 0.01040403,
        "meta_inclination": 74.043,
        "meta_ra_of_asc_node": 16.5599,
        "meta_arg_of_pericenter": 106.5256,
        "meta_mean_anomaly": 266.2018,
        "meta_ephemeris_type": 0,
        "meta_classification_type": "U",
        "meta_norad_cat_id": 33915,
        "meta_element_set_no": 999,
        "meta_rev_at_epoch": 87895,
        "meta_bstar": 0.00032106557,
        "meta_mean_motion_dot": 9.48e-06,
        "meta_mean_motion_ddot": 0,
        "tle_line1": "1 33915U 93036DU  25356.31417897  .00000948  00000+0  32107-3 0  9999",
        "tle_line2": "2 33915  74.0430  16.5599 0104040 106.5256 266.2018 14.35103348878954"
      },
      "geometry": {
        "type": "Point",
        "coordinates": [
          -144.48008551631185,
          -49.64329322625577
        ]
      }
    },
    {
      "type": "Feature",
      "properties": {
        "norad_id": 33916,
        "name": "COSMOS 2251 DEB",
        "group": "cosmos-2251-debris",
        "lat": 28.122704956443908,
        "lon": -164.57577482024988,
        "alt_km": 825.7062843135363,
        "timestamp": "2025-12-22T16:55:17.857773+00:00",
        "meta_object_name": "COSMOS 2251 DEB",
        "meta_object_id": "1993-036DV",
        "meta_epoch": "2025-12-22T04:15:24.617664",
        "meta_mean_motion": 13.68623564,
        "meta_eccentricity": 0.03249247,
        "meta_inclination": 74.052,
        "meta_ra_of_asc_node": 25.0814,
        "meta_arg_of_pericenter": 195.2079,
        "meta_mean_anomaly": 238.852,
        "meta_ephemeris_type": 0,
        "meta_classification_type": "U",
        "meta_norad_cat_id": 33916,
        "meta_element_set_no": 999,
        "meta_rev_at_epoch": 84020,
        "meta_bstar": 0.00030506163,
        "meta_mean_motion_dot": 3.56e-06,
        "meta_mean_motion_ddot": 0,
        "tle_line1": "1 33916U 93036DV  25356.17736826  .00000356  00000+0  30506-3 0  9994",
        "tle_line2": "2 33916  74.0520  25.0814 0324924 195.2079 238.8520 13.68623564840205"
      },
      "geometry": {
        "type": "Point",
        "coordinates": [
          -164.57577482024988,
          28.122704956443908
        ]
      }
    },
    {
      "type": "Feature",
      "properties": {
        "norad_id": 33917,
        "name": "COSMOS 2251 DEB",
        "group": "cosmos-2251-debris",
        "lat": -70.67094680494473,
        "lon": -19.633815274141373,
        "alt_km": 859.8599826141235,
        "timestamp": "2025-12-22T16:55:17.857783+00:00",
        "meta_object_name": "COSMOS 2251 DEB",
        "meta_object_id": "1993-036DW",
        "meta_epoch": "2025-12-22T01:38:30.207552",
        "meta_mean_motion": 13.69378364,
        "meta_eccentricity": 0.03312399,
        "meta_inclination": 74.1073,
        "meta_ra_of_asc_node": 107.0977,
        "meta_arg_of_pericenter": 206.0293,
        "meta_mean_anomaly": 152.3844,
        "meta_ephemeris_type": 0,
        "meta_classification_type": "U",
        "meta_norad_cat_id": 33917,
        "meta_element_set_no": 999,
        "meta_rev_at_epoch": 83861,
        "meta_bstar": 0.000769663,
        "meta_mean_motion_dot": 9.61e-06,
        "meta_mean_motion_ddot": 0,
        "tle_line1": "1 33917U 93036DW  25356.06840518  .00000961  00000+0  76966-3 0  9999",
        "tle_line2": "2 33917  74.1073 107.0977 0331239 206.0293 152.3844 13.69378364838614"
      },
      "geometry": {
        "type": "Point",
        "coordinates": [
          -19.633815274141373,
          -70.67094680494473
        ]
      }
    },
    {
      "type": "Feature",
      "properties": {
        "norad_id": 33920,
        "name": "COSMOS 2251 DEB",
        "group": "cosmos-2251-debris",
        "lat": -66.71348775431204,
        "lon": -122.11298330738829,
        "alt_km": 678.3989429337171,
        "timestamp": "2025-12-22T16:55:17.857793+00:00",
        "meta_object_name": "COSMOS 2251 DEB",
        "meta_object_id": "1993-036DZ",
        "meta_epoch": "2025-12-21T05:02:03.425568",
        "meta_mean_motion": 14.58395783,
        "meta_eccentricity": 0.0037911,
        "meta_inclination": 74.0619,
        "meta_ra_of_asc_node": 282.3307,
        "meta_arg_of_pericenter": 287.7031,
        "meta_mean_anomaly": 71.9996,
        "meta_ephemeris_type": 0,
        "meta_classification_type": "U",
        "meta_norad_cat_id": 33920,
        "meta_element_set_no": 999,
        "meta_rev_at_epoch": 88238,
        "meta_bstar": 0.0012071,
        "meta_mean_motion_dot": 5.624e-05,
        "meta_mean_motion_ddot": 0,
        "tle_line1": "1 33920U 93036DZ  25355.20976187  .00005624  00000+0  12071-2 0  9997",
        "tle_line2": "2 33920  74.0619 282.3307 0037911 287.7031  71.9996 14.58395783882383"
      },
      "geometry": {
        "type": "Point",
        "coordinates": [
          -122.11298330738829,
          -66.71348775431204
        ]
      }
    },
    {
      "type": "Feature",
      "properties": {
        "norad_id": 33922,
        "name": "COSMOS 2251 DEB",
        "group": "cosmos-2251-debris",
        "lat": 62.59256662531388,
        "lon": -84.40271547835081,
        "alt_km": 730.3278292562591,
        "timestamp": "2025-12-22T16:55:17.857803+00:00",
        "meta_object_name": "COSMOS 2251 DEB",
        "meta_object_id": "1993-036EB",
        "meta_epoch": "2025-12-21T19:35:38.615424",
        "meta_mean_motion": 14.49537686,
        "meta_eccentricity": 0.00231624,
        "meta_inclination": 74.0469,
        "meta_ra_of_asc_node": 130.7443,
        "meta_arg_of_pericenter": 240.3386,
        "meta_mean_anomaly": 277.0325,
        "meta_ephemeris_type": 0,
        "meta_classification_type": "U",
        "meta_norad_cat_id": 33922,
        "meta_element_set_no": 999,
        "meta_rev_at_epoch": 88709,
        "meta_bstar": 0.00038976891,
        "meta_mean_motion_dot": 1.472e-05,
        "meta_mean_motion_ddot": 0,
        "tle_line1": "1 33922U 93036EB  25355.81641916  .00001472  00000+0  38977-3 0  9996",
        "tle_line2": "2 33922  74.0469 130.7443 0023162 240.3386 277.0325 14.49537686887094"
      },
      "geometry": {
        "type": "Point",
        "coordinates": [
          -84.40271547835081,
          62.59256662531388
        ]
      }
    }
  ]
}